OBJECT_NAME,OBJECT_ID,EPOCH,MEAN_MOTION,ECCENTRICITY,INCLINATION,RA_OF_ASC_NODE,ARG_OF_PERICENTER,MEAN_ANOMALY,EPHEMERIS_TYPE,CLASSIFICATION_TYPE,NORAD_CAT_ID,ELEMENT_SET_NO,REV_AT_EPOCH,BSTAR,MEAN_MOTION_DOT,MEAN_MOTION_DDOT
GLOBALSTAR M069,2007-020C,2026-07-18T06:04:46.530048,12.23472315,.00015627,52.0010,164.1958,216.8205,281.6316,0,U,31573,999,88260,.9527E-4,-.82E-6,0
GLOBALSTAR M072,2007-020D,2026-07-18T06:42:55.747296,11.91658835,.0001659,51.9950,17.4684,41.1171,130.0185,0,U,31574,999,87868,.30616636E-4,-.82E-6,0
GLOBALSTAR M066,2007-048C,2026-07-17T19:22:08.343264,12.30389774,.00055737,51.9610,330.0128,106.9042,58.4450,0,U,32265,999,86399,.45868787E-3,-.4E-6,0
GLOBALSTAR M079,2010-054A,2026-07-17T23:04:56.757792,12.62266439,.00011313,52.0055,14.9875,82.5140,82.7742,0,U,37188,999,72643,-.11032479E-4,-.106E-5,0
GLOBALSTAR M074,2010-054B,2026-07-17T21:48:49.500864,12.62262051,.00008672,52.0034,14.4093,96.7229,68.1707,0,U,37189,999,72703,-.19609555E-4,-.107E-5,0
GLOBALSTAR M076,2010-054C,2026-07-17T22:26:28.086720,12.62262524,.0001103,52.0048,14.5354,96.1656,67.4837,0,U,37190,999,72675,.8485578E-4,-.89E-6,0
GLOBALSTAR M077,2010-054D,2026-07-18T05:25:32.160288,11.67547265,.00022063,51.9959,100.5142,230.7981,301.5684,0,U,37191,999,72476,-.45560712E-3,-.103E-5,0
GLOBALSTAR M075,2010-054E,2026-07-18T02:36:29.438784,12.62267872,.00007808,51.9955,56.0437,68.6457,104.9515,0,U,37192,999,72584,.42903224E-4,-.96E-6,0
GLOBALSTAR M073,2010-054F,2026-07-18T07:28:57.112032,12.62266952,.0001024,52.0081,329.5504,100.9186,274.3485,0,U,37193,999,72786,.59158976E-4,-.93E-6,0
GLOBALSTAR M083,2011-033A,2026-07-18T05:59:47.980032,12.62264296,.00007155,51.9860,277.9263,109.3958,285.6598,0,U,37739,999,69687,.12907936E-3,-.81E-6,0
GLOBALSTAR M088,2011-033B,2026-07-18T07:49:47.129952,12.62269471,.00000933,52.0189,184.1945,47.7688,93.2728,0,U,37740,999,69242,-.62656761E-4,-.115E-5,0
GLOBALSTAR M091,2011-033C,2026-07-18T06:22:22.612800,12.62264247,.00005003,51.9984,147.2986,30.0084,135.6251,0,U,37741,999,69320,.26549187E-4,-.99E-6,0
GLOBALSTAR M085,2011-033D,2026-07-18T02:06:46.364832,12.62264392,.00008399,52.0126,99.1585,45.8075,92.8412,0,U,37742,999,69369,.11719495E-3,-.83E-6,0
GLOBALSTAR M081,2011-033E,2026-07-18T04:46:49.600416,12.62265318,.00007277,51.9957,101.2208,58.5070,105.3287,0,U,37743,999,69385,.92725002E-4,-.87E-6,0
GLOBALSTAR M089,2011-033F,2026-07-18T07:39:52.358400,12.62267609,.00007124,51.9939,55.0077,91.9718,79.3342,0,U,37744,999,69471,.28500484E-4,-.99E-6,0
GLOBALSTAR M084,2011-080A,2026-07-18T00:23:02.952096,12.62263617,.00007686,52.0017,283.4308,133.7284,38.2077,0,U,38040,999,67265,.12592381E-3,-.81E-6,0
GLOBALSTAR M080,2011-080B,2026-07-18T06:27:32.350752,12.62257576,.00002974,52.0065,284.3895,76.7380,295.7039,0,U,38041,999,67281,.12419676E-3,-.82E-6,0
GLOBALSTAR M082,2011-080C,2026-07-18T01:05:27.682656,12.62264345,.00001862,52.0058,240.5740,73.3518,292.2408,0,U,38042,999,67349,.68947175E-4,-.91E-6,0
GLOBALSTAR M092,2011-080D,2026-07-17T19:35:50.099712,12.62267883,.00007609,52.0105,331.6680,106.5467,57.7424,0,U,38043,999,67191,.12038063E-3,-.82E-6,0
GLOBALSTAR M090,2011-080E,2026-07-18T01:47:29.938848,12.62269655,.00004101,52.0101,234.4507,87.8293,289.3155,0,U,38044,999,67361,.87200377E-4,-.88E-6,0
GLOBALSTAR M086,2011-080F,2026-07-17T19:30:43.632864,12.62287873,.00014679,51.9873,235.1255,115.5282,55.9605,0,U,38045,999,67352,.16478581E-4,-.101E-5,0
GLOBALSTAR M097,2013-005A,2026-07-18T02:58:20.236512,12.62271326,.00004924,52.0029,149.1607,42.4346,317.6559,0,U,39072,999,62081,-.31141183E-4,-.109E-5,0
GLOBALSTAR M093,2013-005B,2026-07-18T00:25:47.213184,12.62266351,.00007231,52.0095,142.8422,48.9945,311.0984,0,U,39073,999,62075,.27754934E-4,-.99E-6,0
GLOBALSTAR M094,2013-005C,2026-07-18T00:25:34.934016,12.62264210,.00010266,51.9968,56.9294,67.0053,293.0922,0,U,39074,999,62236,.69705068E-4,-.91E-6,0
GLOBALSTAR M096,2013-005D,2026-07-18T02:39:05.018400,12.62265761,.00008037,52.0073,105.4727,47.7293,312.3642,0,U,39075,999,62129,.12019431E-3,-.82E-6,0
GLOBALSTAR M078,2013-005E,2026-07-18T03:54:25.558848,12.62260116,.00009057,51.9845,189.2810,346.9844,13.0999,0,U,39076,999,61992,-.10464476E-3,-.123E-5,0
GLOBALSTAR M095,2013-005F,2026-07-18T02:38:48.624864,12.62264097,.00005245,52.0053,187.0882,18.1346,341.9539,0,U,39077,999,61977,-.11243382E-3,-.124E-5,0
GLOBALSTAR M087,2022-064A,2026-07-18T06:45:43.394400,12.62269417,.00008919,52.0017,327.7875,88.0033,272.0936,0,U,52888,999,19506,.99251958E-4,-.86E-6,0
